     2.10           Navigation                              RINEX VERSION / TYPE
gl_Rinex            NMA                 11/03/2018 02:14:26 PGM / RUN BY / DATE 
    1.0245E-08  0.0000E+00 -5.9605E-08  0.0000E+00          ION ALPHA           
    9.0112E+04  0.0000E+00 -1.9661E+05  0.0000E+00          ION BETA            
    3.725290298462E-09 1.065814103640E-14    61440     1992 DELTA-UTC: A0,A1,T,W
    18                                                      LEAP SECONDS        
                                                            END OF HEADER       
 3 18  3 10  2  0  0.0 2.530077472329E-05 8.185452315956E-12 0.000000000000E+00
    6.800000000000E+01-1.140625000000E+01 4.601620247382E-09 2.378180238353E-01
   -6.332993507385E-07 1.209465204738E-03 8.072704076767E-06 5.153541427612E+03
    5.256000000000E+05 3.539025783539E-08-2.043240023891E-01-9.313225746155E-09
    9.610922182172E-01 2.223750000000E+02 4.391680498206E-01-8.031048811133E-09
    1.100045821324E-10 1.000000000000E+00 1.991000000000E+03 0.000000000000E+00
    2.000000000000E+00 0.000000000000E+00 2.328306436539E-09 6.800000000000E+01
    5.218380000000E+05 0.000000000000E+00                                      
17 18  3 10  2  0  0.0-1.170183531940E-04 3.183231456205E-12 0.000000000000E+00
    6.200000000000E+01-3.684375000000E+01 4.138743823864E-09-3.136401624837E+00
   -1.801177859306E-06 1.232164877001E-02 5.261972546577E-06 5.153776870728E+03
    5.256000000000E+05 2.328306436539E-07-2.250489470377E+00-1.490116119385E-07
    9.821807543308E-01 2.860000000000E+02-1.785634340438E+00-7.812468277805E-09
   -4.250177036933E-11 1.000000000000E+00 1.991000000000E+03 0.000000000000E+00
    2.000000000000E+00 0.000000000000E+00-1.117587089539E-08 6.200000000000E+01
    5.198580000000E+05 0.000000000000E+00                                      
 8 18  3 10  2  0  0.0-9.382236748934E-05-1.250555214938E-12 0.000000000000E+00
    3.600000000000E+01-3.456250000000E+01 4.507330605555E-09-2.676060812857E+00
   -1.708045601845E-06 3.396779298782E-03 5.025416612625E-06 5.153777126312E+03
    5.256000000000E+05-1.862645149231E-08-2.311924434235E+00 6.705522537231E-08
    9.688081499482E-01 2.882187500000E+02-5.143842183960E-01-8.118552456011E-09
   -2.892977646988E-11 1.000000000000E+00 1.991000000000E+03 0.000000000000E+00
    2.000000000000E+00 0.000000000000E+00 5.587935447693E-09 3.600000000000E+01
    5.184180000000E+05 0.000000000000E+00                                      
14 18  3 10  2  0  0.0-9.494088590145E-05-4.547473508865E-13 0.000000000000E+00
    6.400000000000E+01 1.062500000000E+01 4.396254550220E-09 2.921192111925E+00
    5.234032869339E-07 9.431200101972E-03 8.104369044304E-06 5.153740724564E+03
    5.256000000000E+05 8.195638656616E-08 9.187870894559E-01-5.774199962616E-08
    9.612562010935E-01 2.220937500000E+02-1.957514354239E+00-7.748894201118E-09
   -1.228622605635E-10 1.000000000000E+00 1.991000000000E+03 0.000000000000E+00
    2.000000000000E+00 0.000000000000E+00-9.778887033463E-09 6.400000000000E+01
    5.197980000000E+05 0.000000000000E+00                                      
32 18  3 10  2  0  0.0-5.292589776218E-04 2.046363078989E-12 0.000000000000E+00
    3.100000000000E+01 6.625000000000E+00 4.555546899671E-09-2.226606811934E+00
    3.743916749954E-07 1.784261665307E-03 7.972121238708E-06 5.153638879776E+03
    5.256000000000E+05-4.284083843231E-08 8.342229460371E-01-1.862645149231E-09
    9.573720424112E-01 2.247500000000E+02-2.666418354067E+00-7.942830850787E-09
   -9.571827276455E-11 1.000000000000E+00 1.991000000000E+03 0.000000000000E+00
    2.000000000000E+00 0.000000000000E+00 4.656612873077E-10 3.100000000000E+01
    5.184180000000E+05 0.000000000000E+00                                      
24 18  3 10  2  0  0.0-4.708720371127E-05-5.684341886081E-13 0.000000000000E+00
    7.400000000000E+01 4.756250000000E+01 4.918419157614E-09 1.328995101798E+00
    2.391636371613E-06 6.872039753944E-03 7.923692464828E-06 5.153656906128E+03
    5.256000000000E+05-3.166496753693E-08 1.849528804596E+00 7.450580596924E-08
    9.420909619157E-01 2.163750000000E+02 5.340216099950E-01-8.282130698273E-09
   -1.653640309328E-10 1.000000000000E+00 1.991000000000E+03 0.000000000000E+00
    2.000000000000E+00 0.000000000000E+00 2.793967723846E-09 7.400000000000E+01
    5.184180000000E+05 0.000000000000E+00                                      
 1 18  3 10  2  0  0.0-3.322027623653E-05-2.273736754432E-12 0.000000000000E+00
    1.050000000000E+02-5.278125000000E+01 4.375182243902E-09 1.090551237219E+00
   -2.533197402954E-06 7.420248934068E-03 8.033588528633E-06 5.153675319672E+03
    5.256000000000E+05-1.862645149231E-09-1.247191998279E+00 1.210719347000E-07
    9.701591796640E-01 2.299375000000E+02 6.102129305036E-01-8.043549331830E-09
   -4.000166622996E-11 1.000000000000E+00 1.991000000000E+03 0.000000000000E+00
    2.800000000000E+00 0.000000000000E+00 5.587935447693E-09 1.050000000000E+02
    5.184180000000E+05 0.000000000000E+00                                      
28 18  3 10  2  0  0.0 6.956350989640E-04 3.410605131648E-12 0.000000000000E+00
    2.800000000000E+01 4.390625000000E+01 3.901948246092E-09-2.137259232146E+00
    2.544373273849E-06 1.963221095502E-02 5.481764674187E-06 5.153678339005E+03
    5.256000000000E+05 2.346932888031E-07 3.021866089172E+00 2.384185791016E-07
    9.867893427313E-01 2.820937500000E+02-1.523824991142E+00-7.593173429009E-09
    1.600066649198E-10 1.000000000000E+00 1.991000000000E+03 0.000000000000E+00
    2.000000000000E+00 0.000000000000E+00-1.117587089539E-08 2.800000000000E+01
    5.184180000000E+05 0.000000000000E+00                                      
22 18  3 10  2  0  0.0-3.177272155881E-04-1.296029950026E-11 0.000000000000E+00
    4.000000000000E+01-1.384375000000E+01 5.362723378954E-09 2.613434767431E+00
   -7.674098014832E-07 7.359299692325E-03 7.688999176025E-06 5.153570442200E+03
    5.256000000000E+05 9.685754776001E-08-2.609376578551E-01-5.029141902924E-08
    9.250784637455E-01 2.086875000000E+02-1.599504397116E+00-8.268915862108E-09
    9.214669542259E-11 1.000000000000E+00 1.991000000000E+03 0.000000000000E+00
    2.000000000000E+00 0.000000000000E+00-1.769512891769E-08 4.000000000000E+01
    5.192520000000E+05 0.000000000000E+00                                      
11 18  3 10  2  0  0.0-7.372223772109E-04-3.410605131648E-13 0.000000000000E+00
    3.900000000000E+01-5.884375000000E+01 6.055609383295E-09 3.665014709659E-01
   -3.024935722351E-06 1.672062894795E-02 6.759539246559E-06 5.153618104935E+03
    5.256000000000E+05-1.788139343262E-07-1.669097835664E+00-1.266598701477E-07
    9.041322593206E-01 2.245937500000E+02 1.742960168647E+00-9.122880004571E-09
   -4.607334771129E-11 1.000000000000E+00 1.991000000000E+03 0.000000000000E+00
    2.000000000000E+00 0.000000000000E+00-1.210719347000E-08 3.900000000000E+01
    5.184180000000E+05 0.000000000000E+00                                      
10 18  3 10  2  0  0.0 1.685470342636E-04 3.979039320257E-12 0.000000000000E+00
    9.400000000000E+01-1.081250000000E+01 4.536974697493E-09-9.871489484760E-01
   -6.649643182755E-07 3.356456523761E-03 7.951632142067E-06 5.153662233353E+03
    5.256000000000E+05 1.266598701477E-07-2.078211226868E-01-8.381903171539E-08
    9.612013533688E-01 2.281875000000E+02-2.798866487749E+00-7.957831475623E-09
    6.714565402886E-11 1.000000000000E+00 1.991000000000E+03 0.000000000000E+00
    2.800000000000E+00 0.000000000000E+00 1.862645149231E-09 9.400000000000E+01
    5.184180000000E+05 0.000000000000E+00                                      
19 18  3 10  2  0  0.0-4.519140347838E-04 2.614797267597E-12 0.000000000000E+00
    6.300000000000E+01-3.237500000000E+01 4.256248718415E-09-1.067485105039E-01
   -1.600012183189E-06 9.744240553118E-03 5.753710865974E-06 5.153705299377E+03
    5.256000000000E+05-7.636845111847E-08-2.203328483487E+00 6.705522537231E-08
    9.796123544095E-01 2.795312500000E+02 1.134203049367E+00-8.185340952306E-09
   -4.678766317969E-11 1.000000000000E+00 1.991000000000E+03 0.000000000000E+00
    2.000000000000E+00 0.000000000000E+00-1.536682248116E-08 6.300000000000E+01
    5.221560000000E+05 0.000000000000E+00                                      
 3 18  3 10  2  0  0.0 2.530077472329E-05 8.185452315956E-12 0.000000000000E+00
    6.800000000000E+01-1.140625000000E+01 4.601620247382E-09 2.378180238353E-01
   -6.332993507385E-07 1.209465204738E-03 8.072704076767E-06 5.153541427612E+03
    5.256000000000E+05 3.539025783539E-08-2.043240023891E-01-9.313225746155E-09
    9.610922182172E-01 2.223750000000E+02 4.391680498206E-01-8.031048811133E-09
    1.100045821324E-10 1.000000000000E+00 1.991000000000E+03 0.000000000000E+00
    2.000000000000E+00 0.000000000000E+00 2.328306436539E-09 6.800000000000E+01
    5.218380000000E+05 0.000000000000E+00                                      
17 18  3 10  2  0  0.0-1.170183531940E-04 3.183231456205E-12 0.000000000000E+00
    6.200000000000E+01-3.684375000000E+01 4.138743823864E-09-3.136401624837E+00
   -1.801177859306E-06 1.232164877001E-02 5.261972546577E-06 5.153776870728E+03
    5.256000000000E+05 2.328306436539E-07-2.250489470377E+00-1.490116119385E-07
    9.821807543308E-01 2.860000000000E+02-1.785634340438E+00-7.812468277805E-09
   -4.250177036933E-11 1.000000000000E+00 1.991000000000E+03 0.000000000000E+00
    2.000000000000E+00 0.000000000000E+00-1.117587089539E-08 6.200000000000E+01
    5.198580000000E+05 0.000000000000E+00                                      
